[{"OBJECT_NAME":"STARLINK-30821","OBJECT_ID":"2023-167G","EPOCH":"2026-03-08T11:43:15.836736","MEAN_MOTION":15.26757242,"ECCENTRICITY":0.00011052,"INCLINATION":42.9974,"RA_OF_ASC_NODE":149.9789,"ARG_OF_PERICENTER":242.9585,"MEAN_ANOMALY":117.1154,"EPHEMERIS_TYPE":0,"CLASSIFICATION_TYPE":"U","NORAD_CAT_ID":58181,"ELEMENT_SET_NO":999,"REV_AT_EPOCH":13079,"BSTAR":0.00013541025,"MEAN_MOTION_DOT":3.376e-5,"MEAN_MOTION_DDOT":0},{"OBJECT_NAME":"KUIPER-00274","OBJECT_ID":"2026-030AE","EPOCH":"2026-03-09T22:00:01.999584","MEAN_MOTION":15.29896925,"ECCENTRICITY":0.00182929,"INCLINATION":51.8831,"RA_OF_ASC_NODE":218.6923,"ARG_OF_PERICENTER":71.2033,"MEAN_ANOMALY":115.2248,"EPHEMERIS_TYPE":0,"CLASSIFICATION_TYPE":"U","NORAD_CAT_ID":67792,"ELEMENT_SET_NO":999,"REV_AT_EPOCH":410,"BSTAR":0.0017989756,"MEAN_MOTION_DOT":0.00053102,"MEAN_MOTION_DDOT":0}]
